H1 CPF 01  gfz 2022 01 20 01  5201 terrasarx 
H2 0702601  6201 31698    2022 01 20 00 59 42 2022 01 25 00 00 42   120 1 1  0 0 0
H9
10 0 59601  12942.000000  0   -2664115.325   -946929.630   6270947.362
10 0 59601  13062.000000  0   -1997841.587   -386552.127   6570365.834
10 0 59601  13182.000000  0   -1286944.614    168519.905   6754313.256
10 0 59601  13302.000000  0    -544017.034    707929.983   6819580.095
10 0 59601  13422.000000  0     217618.783   1221823.431   6765028.984
10 0 59601  13542.000000  0     984148.968   1701027.060   6591613.512
10 0 59601  13662.000000  0    1741518.124   2137213.180   6302362.211
10 0 59601  13782.000000  0    2475686.058   2523044.236   5902328.620
10 0 59601  13902.000000  0    3172888.423   2852297.611   5398509.334
10 0 59601  14022.000000  0    3819898.015   3119968.604   4799727.795
10 0 59601  14142.000000  0    4404278.801   3322348.897   4116484.428
10 0 59601  14262.000000  0    4914630.360   3457078.997   3360778.962
10 0 59601  14382.000000  0    5340819.927   3523174.669   2545900.612
10 0 59601  14502.000000  0    5674189.312   3521022.789   1686192.200
10 0 59601  14622.000000  0    5907736.324   3452350.354    796793.876
10 0 59601  14742.000000  0    6036265.000   3320165.250   -106631.111
10 0 59601  14862.000000  0    6056499.425   3128669.656  -1008181.098
10 0 59601  14982.000000  0    5967159.305   2883148.839  -1892004.494
10 0 59601  15102.000000  0    5768994.461   2589839.620  -2742585.521
10 0 59601  15222.000000  0    5464779.354   2255781.331  -3545022.207
10 0 59601  15342.000000  0    5059267.866   1888652.136  -4285290.038
10 0 59601  15462.000000  0    4559108.610   1496595.534  -4950487.002
10 0 59601  15582.000000  0    3972723.994   1088042.096  -5529052.159
10 0 59601  15702.000000  0    3310159.226    671531.323  -6010957.857
10 0 59601  15822.000000  0    2582902.370    255536.449  -6387873.469
10 0 59601  15942.000000  0    1803680.372   -151703.874  -6653297.430
10 0 59601  16062.000000  0     986236.536   -542344.271  -6802658.916
10 0 59601  16182.000000  0     145089.921   -909079.922  -6833389.256
10 0 59601  16302.000000  0    -704718.120  -1245278.982  -6744959.540
10 0 59601  16422.000000  0   -1547885.749  -1545098.987  -6538888.997
10 0 59601  16542.000000  0   -2369120.224  -1803586.504  -6218722.201
10 0 59601  16662.000000  0   -3153409.113  -2016757.747  -5789973.656
10 0 59601  16782.000000  0   -3886290.214  -2181660.048  -5260043.717
10 0 59601  16902.000000  0   -4554119.378  -2296413.378  -4638102.992
10 0 59601  17022.000000  0   -5144328.284  -2360229.853  -3934944.439
10 0 59601  17142.000000  0   -5645667.826  -2373411.312  -3162806.101
10 0 59601  17262.000000  0   -6048432.204  -2337324.164  -2335164.832
10 0 59601  17382.000000  0   -6344657.243  -2254351.635  -1466504.425
10 0 59601  17502.000000  0   -6528288.492  -2127824.449   -572061.790
10 0 59601  17622.000000  0   -6595313.529  -1961930.983    332444.385
10 0 59601  17742.000000  0   -6543855.070  -1761608.790   1231096.874
10 0 59601  17862.000000  0   -6374221.143  -1532420.016   2108069.170
10 0 59601  17982.000000  0   -6088910.257  -1280414.627   2947913.543
10 0 59601  18102.000000  0   -5692572.842  -1011984.312   3735840.942
10 0 59601  18222.000000  0   -5191929.007   -733710.624   4457988.625
10 0 59601  18342.000000  0   -4595643.806   -452212.097   5101665.979
10 0 59601  18462.000000  0   -3914168.549   -173994.122   5655576.016
10 0 59601  18582.000000  0   -3159548.949     94695.700   6110011.616
10 0 59601  18702.000000  0   -2345203.357    348003.146   6457020.702
10 0 59601  18822.000000  0   -1485677.950    580590.118   6690539.302
10 0 59601  18942.000000  0    -596382.914    787743.755   6806491.570
10 0 59601  19062.000000  0     306684.745    965469.901   6802855.567
10 0 59601  19182.000000  0    1207228.029   1110569.014   6679695.976
10 0 59601  19302.000000  0    2088942.946   1220694.049   6439163.166
10 0 59601  19422.000000  0    2935812.737   1294388.522   6085458.078
10 0 59601  19542.000000  0    3732400.067   1331104.522   5624764.122
10 0 59601  19662.000000  0    4464131.301   1331200.315   5065143.818
10 0 59601  19782.000000  0    5117567.150   1295918.085   4416404.882
10 0 59601  19902.000000  0    5680658.941   1227341.897   3689934.754
10 0 59601  20022.000000  0    6142980.983   1128336.851   2898501.892
10 0 59601  20142.000000  0    6495932.258   1002469.276   2056031.016
10 0 59601  20262.000000  0    6732906.137    853911.387   1177355.883
10 0 59601  20382.000000  0    6849421.247    687331.846    277951.626
10 0 59601  20502.000000  0    6843210.767    507774.879   -626345.262
10 0 59601  20622.000000  0    6714266.653    320531.101  -1519625.628
10 0 59601  20742.000000  0    6464837.205    131003.650  -2386195.888
10 0 59601  20862.000000  0    6099380.280    -55427.548  -3210859.876
10 0 59601  20982.000000  0    5624473.447   -233539.156  -3979189.346
10 0 59601  21102.000000  0    5048682.771   -398392.247  -4677777.224
10 0 59601  21222.000000  0    4382394.698   -545450.880  -5294467.241
10 0 59601  21342.000000  0    3637618.118   -670689.533  -5818557.833
10 0 59601  21462.000000  0    2827759.542   -770688.068  -6240978.980
10 0 59601  21582.000000  0    1967375.621   -842710.904  -6554438.014
10 0 59601  21702.000000  0    1071910.325   -884769.392  -6753533.619
10 0 59601  21822.000000  0     157420.299   -895667.910  -6834840.004
10 0 59601  21942.000000  0    -759708.514   -875030.956  -6796959.013
10 0 59601  22062.000000  0   -1663047.223   -823312.481  -6640541.534
10 0 59601  22182.000000  0   -2536412.082   -741786.462  -6368277.502
10 0 59601  22302.000000  0   -3364147.594   -632519.372  -5984853.272
10 0 59601  22422.000000  0   -4131402.284   -498324.929  -5496880.875
10 0 59601  22542.000000  0   -4824396.181   -342701.311  -4912795.138
10 0 59601  22662.000000  0   -5430671.519   -169752.131  -4242719.046
10 0 59601  22782.000000  0   -5939324.818     15907.409  -3498300.076
10 0 59601  22902.000000  0   -6341214.430    209258.570  -2692515.751
10 0 59601  23022.000000  0   -6629137.697    404998.330  -1839452.786
10 0 59601  23142.000000  0   -6797973.560    597668.205   -954062.174
10 0 59601  23262.000000  0   -6844786.410    781787.999    -51893.145
10 0 59601  23382.000000  0   -6768884.133    951992.293    851186.851
10 0 59601  23502.000000  0   -6571832.983   1103165.862   1739277.947
10 0 59601  23622.000000  0   -6257427.909   1230574.615   2596736.967
10 0 59601  23742.000000  0   -5831616.828   1329988.292   3408462.321
10 0 59601  23862.000000  0   -5302380.988   1397791.702   4160167.244
10 0 59601  23982.000000  0   -4679575.893   1431081.921   4838634.817
10 0 59601  24102.000000  0   -3974737.953   1427749.015   5431950.652
10 0 59601  24222.000000  0   -3200862.060   1386538.763   5929709.928
10 0 59601  24342.000000  0   -2372154.344   1307096.081   6323196.769
10 0 59601  24462.000000  0   -1503763.809   1189988.751   6605531.973
10 0 59601  24582.000000  0    -611500.453   1036710.027   6771785.823
10 0 59601  24702.000000  0     288453.414    849661.082   6819057.829
10 0 59601  24822.000000  0    1179835.715    632113.178   6746523.823
10 0 59601  24942.000000  0    2046597.070    388150.718   6555449.395
10 0 59601  25062.000000  0    2873188.583    122595.542   6249169.815
10 0 59601  25182.000000  0    3644841.826   -159086.692   5833036.584
10 0 59601  25302.000000  0    4347835.582   -450896.495   5314328.894
10 0 59601  25422.000000  0    4969744.552   -746424.864   4702132.494
10 0 59601  25542.000000  0    5499666.388  -1038989.764   4007186.172
10 0 59601  25662.000000  0    5928421.793  -1321782.502   3241697.526
10 0 59601  25782.000000  0    6248723.612  -1588020.381   2419129.430
10 0 59601  25902.000000  0    6455309.704  -1831101.973   1553961.467
10 0 59601  26022.000000  0    6545036.579  -2044761.417    661430.652
10 0 59601  26142.000000  0    6516931.020  -2223218.793   -242744.176
10 0 59601  26262.000000  0    6372197.254  -2361320.757  -1142648.477
10 0 59601  26382.000000  0    6114180.140  -2454669.007  -2022461.119
10 0 59601  26502.000000  0    5748284.753  -2499733.084  -2866740.413
10 0 59601  26622.000000  0    5281855.632  -2493943.959  -3660699.876
10 0 59601  26742.000000  0    4724020.324  -2435767.467  -4390468.387
10 0 59601  26862.000000  0    4085501.066  -2324756.055  -5043331.183
10 0 59601  26982.000000  0    3378398.004  -2161577.496  -5607946.030
10 0 59601  27102.000000  0    2615951.913  -1948020.292  -6074530.132
10 0 59601  27222.000000  0    1812293.344  -1686976.653  -6435019.196
10 0 59601  27342.000000  0     982178.944  -1382402.912  -6683197.125
10 0 59601  27462.000000  0     140721.795  -1039258.741  -6814792.027
10 0 59601  27582.000000  0    -696879.098   -663426.865  -6827541.433
10 0 59601  27702.000000  0   -1515606.800   -261614.197  -6721226.764
10 0 59601  27822.000000  0   -2300889.843    158765.243  -6497676.362
10 0 59601  27942.000000  0   -3038855.382    589723.212  -6160736.554
10 0 59601  28062.000000  0   -3716569.591   1022844.415  -5716213.223
10 0 59601  28182.000000  0   -4322264.297   1449446.073  -5171782.524
10 0 59601  28302.000000  0   -4845544.713   1860747.820  -4536870.253
10 0 59601  28422.000000  0   -5277574.882   2248050.370  -3822499.625
10 0 59601  28542.000000  0   -5611235.260   2602916.692  -3041108.784
10 0 59601  28662.000000  0   -5841250.679   2917353.306  -2206341.443
10 0 59601  28782.000000  0   -5964284.862   3183987.786  -1332811.810
10 0 59601  28902.000000  0   -5978997.424   3396238.160   -435847.592
10 0 59601  29022.000000  0   -5886061.627   3548469.166    468783.587
10 0 59601  29142.000000  0   -5688141.608   3636130.653   1365159.943
10 0 59601  29262.000000  0   -5389827.377   3655874.730   2237494.926
10 0 59601  29382.000000  0   -4997531.307   3605648.644   3070423.700
99
